[{"OBJECT_NAME":"STARLINK-31683","OBJECT_ID":"2024-076K","EPOCH":"2026-03-09T03:55:35.106528","MEAN_MOTION":15.27573131,"ECCENTRICITY":0.00011707,"INCLINATION":43.0049,"RA_OF_ASC_NODE":11.8462,"ARG_OF_PERICENTER":281.5522,"MEAN_ANOMALY":78.5198,"EPHEMERIS_TYPE":0,"CLASSIFICATION_TYPE":"U","NORAD_CAT_ID":59573,"ELEMENT_SET_NO":999,"REV_AT_EPOCH":10642,"BSTAR":-2.0415594e-5,"MEAN_MOTION_DOT":-8.24e-6,"MEAN_MOTION_DDOT":0},{"OBJECT_NAME":"GEOSCAN 1 (RS92S1)","OBJECT_ID":"2025-155E","EPOCH":"2026-03-09T22:44:05.846496","MEAN_MOTION":15.28410635,"ECCENTRICITY":0.00087099,"INCLINATION":97.4463,"RA_OF_ASC_NODE":37.403,"ARG_OF_PERICENTER":153.6429,"MEAN_ANOMALY":206.5255,"EPHEMERIS_TYPE":0,"CLASSIFICATION_TYPE":"U","NORAD_CAT_ID":64880,"ELEMENT_SET_NO":999,"REV_AT_EPOCH":6560,"BSTAR":0.00054367431,"MEAN_MOTION_DOT":0.00014993,"MEAN_MOTION_DDOT":0}]
